[
    {
        "Altitude(m)": 704394.5613535332,
        "Argument of Periapsis(deg)": 0.007973084830638947,
        "Eccentricity": 0.0,
        "Inclination(deg)": 45.0,
        "Latitude(deg)": -5.9400282042350465,
        "Longitude(deg)": 158.52744992926475,
        "Mean Anomaly(deg)": -8.290348346763507,
        "RAAN(deg)": 264.99247364097926,
        "Satellite Name": "Constellation 1 1187",
        "Satellite Number": 1187,
        "Semi-Major Axis(m)": 7083131.272910544,
        "Time(s)": 133
    },
    {
        "Altitude(m)": 704386.2211755757,
        "Argument of Periapsis(deg)": 0.008033032836884352,
        "Eccentricity": 0.0,
        "Inclination(deg)": 45.0,
        "Latitude(deg)": -5.897057862316402,
        "Longitude(deg)": 158.56664570721875,
        "Mean Anomaly(deg)": -8.229647206513569,
        "RAAN(deg)": 264.9924170518137,
        "Satellite Name": "Constellation 1 1187",
        "Satellite Number": 1187,
        "Semi-Major Axis(m)": 7083131.272910544,
        "Time(s)": 134
    },
    {
        "Altitude(m)": 704377.8999127506,
        "Argument of Periapsis(deg)": 0.008092980843129758,
        "Eccentricity": 0.0,
        "Inclination(deg)": 45.0,
        "Latitude(deg)": -5.854084006480893,
        "Longitude(deg)": 158.60583490784398,
        "Mean Anomaly(deg)": -8.168946066263631,
        "RAAN(deg)": 264.99236046264815,
        "Satellite Name": "Constellation 1 1187",
        "Satellite Number": 1187,
        "Semi-Major Axis(m)": 7083131.272910544,
        "Time(s)": 135
    },
    {
        "Altitude(m)": 704369.5975839576,
        "Argument of Periapsis(deg)": 0.008152928849375162,
        "Eccentricity": 0.0,
        "Inclination(deg)": 45.0,
        "Latitude(deg)": -5.811106662468617,
        "Longitude(deg)": 158.64501758037832,
        "Mean Anomaly(deg)": -8.108244926013796,
        "RAAN(deg)": 264.99230387348257,
        "Satellite Name": "Constellation 1 1187",
        "Satellite Number": 1187,
        "Semi-Major Axis(m)": 7083131.272910544,
        "Time(s)": 136
    },
    {
        "Altitude(m)": 704361.314208002,
        "Argument of Periapsis(deg)": 0.008212876855620568,
        "Eccentricity": 0.0,
        "Inclination(deg)": 45.0,
        "Latitude(deg)": -5.7681258560071855,
        "Longitude(deg)": 158.684193774046,
        "Mean Anomaly(deg)": -8.047543785763859,
        "RAAN(deg)": 264.992247284317,
        "Satellite Name": "Constellation 1 1187",
        "Satellite Number": 1187,
        "Semi-Major Axis(m)": 7083131.272910544,
        "Time(s)": 137
    },
    {
        "Altitude(m)": 704353.0498036006,
        "Argument of Periapsis(deg)": 0.008272824861865974,
        "Eccentricity": 0.0,
        "Inclination(deg)": 45.0,
        "Latitude(deg)": -5.725141612812493,
        "Longitude(deg)": 158.72336353805693,
        "Mean Anomaly(deg)": -7.986842645513922,
        "RAAN(deg)": 264.9921906951514,
        "Satellite Name": "Constellation 1 1187",
        "Satellite Number": 1187,
        "Semi-Major Axis(m)": 7083131.272910544,
        "Time(s)": 138
    },
    {
        "Altitude(m)": 704344.8043893856,
        "Argument of Periapsis(deg)": 0.00833277286811138,
        "Eccentricity": 0.0,
        "Inclination(deg)": 45.0,
        "Latitude(deg)": -5.682153958588506,
        "Longitude(deg)": 158.76252692160745,
        "Mean Anomaly(deg)": -7.926141505264137,
        "RAAN(deg)": 264.9921341059858,
        "Satellite Name": "Constellation 1 1187",
        "Satellite Number": 1187,
        "Semi-Major Axis(m)": 7083131.272910544,
        "Time(s)": 139
    },
    {
        "Altitude(m)": 704336.5779838986,
        "Argument of Periapsis(deg)": 0.008392720874356788,
        "Eccentricity": 0.0,
        "Inclination(deg)": 45.0,
        "Latitude(deg)": -5.639162919026907,
        "Longitude(deg)": 158.80168397388053,
        "Mean Anomaly(deg)": -7.865440365014199,
        "RAAN(deg)": 264.9920775168203,
        "Satellite Name": "Constellation 1 1187",
        "Satellite Number": 1187,
        "Semi-Major Axis(m)": 7083131.272910544,
        "Time(s)": 140
    },
    {
        "Altitude(m)": 704328.3706055987,
        "Argument of Periapsis(deg)": 0.008452668880602192,
        "Eccentricity": 0.0,
        "Inclination(deg)": 45.0,
        "Latitude(deg)": -5.596168519807756,
        "Longitude(deg)": 158.84083457594824,
        "Mean Anomaly(deg)": -7.804739224764261,
        "RAAN(deg)": 264.9920209276547,
        "Satellite Name": "Constellation 1 1187",
        "Satellite Number": 1187,
        "Semi-Major Axis(m)": 7083131.272910544,
        "Time(s)": 141
    },
    {
        "Altitude(m)": 704320.1822728459,
        "Argument of Periapsis(deg)": 0.008512616886847598,
        "Eccentricity": 0.0,
        "Inclination(deg)": 45.0,
        "Latitude(deg)": -5.553170786600161,
        "Longitude(deg)": 158.8799791131603,
        "Mean Anomaly(deg)": -7.744038084514376,
        "RAAN(deg)": 264.9919643384891,
        "Satellite Name": "Constellation 1 1187",
        "Satellite Number": 1187,
        "Semi-Major Axis(m)": 7083131.272910544,
        "Time(s)": 142
    },
    {
        "Altitude(m)": 704312.0130039143,
        "Argument of Periapsis(deg)": 0.008572564893093004,
        "Eccentricity": 0.0,
        "Inclination(deg)": 45.0,
        "Latitude(deg)": -5.510169745060791,
        "Longitude(deg)": 158.91911746656223,
        "Mean Anomaly(deg)": -7.683336944264489,
        "RAAN(deg)": 264.99190774932356,
        "Satellite Name": "Constellation 1 1187",
        "Satellite Number": 1187,
        "Semi-Major Axis(m)": 7083131.272910544,
        "Time(s)": 143
    },
    {
        "Altitude(m)": 704303.8628169937,
        "Argument of Periapsis(deg)": 0.008632512899338408,
        "Eccentricity": 0.0,
        "Inclination(deg)": 45.0,
        "Latitude(deg)": -5.467165420834991,
        "Longitude(deg)": 158.95824968528333,
        "Mean Anomaly(deg)": -7.622635804014552,
        "RAAN(deg)": 264.991851160158,
        "Satellite Name": "Constellation 1 1187",
        "Satellite Number": 1187,
        "Semi-Major Axis(m)": 7083131.272910544,
        "Time(s)": 144
    },
    {
        "Altitude(m)": 704295.7317301817,
        "Argument of Periapsis(deg)": 0.008692460905583814,
        "Eccentricity": 0.0,
        "Inclination(deg)": 45.0,
        "Latitude(deg)": -5.424157839556896,
        "Longitude(deg)": 158.99737581843954,
        "Mean Anomaly(deg)": -7.561934663764614,
        "RAAN(deg)": 264.99179457099245,
        "Satellite Name": "Constellation 1 1187",
        "Satellite Number": 1187,
        "Semi-Major Axis(m)": 7083131.272910544,
        "Time(s)": 145
    },
    {
        "Altitude(m)": 704287.6197614827,
        "Argument of Periapsis(deg)": 0.00875240891182922,
        "Eccentricity": 0.0,
        "Inclination(deg)": 45.0,
        "Latitude(deg)": -5.381147026849406,
        "Longitude(deg)": 159.03649591513386,
        "Mean Anomaly(deg)": -7.501233523514829,
        "RAAN(deg)": 264.9917379818269,
        "Satellite Name": "Constellation 1 1187",
        "Satellite Number": 1187,
        "Semi-Major Axis(m)": 7083131.272910544,
        "Time(s)": 146
    },
    {
        "Altitude(m)": 704279.5269288245,
        "Argument of Periapsis(deg)": 0.008812356918074627,
        "Eccentricity": 0.0,
        "Inclination(deg)": 45.0,
        "Latitude(deg)": -5.338133008323753,
        "Longitude(deg)": 159.07561002445647,
        "Mean Anomaly(deg)": -7.4405323832648405,
        "RAAN(deg)": 264.99168139266123,
        "Satellite Name": "Constellation 1 1187",
        "Satellite Number": 1187,
        "Semi-Major Axis(m)": 7083131.272910544,
        "Time(s)": 147
    },
    {
        "Altitude(m)": 704271.453250029,
        "Argument of Periapsis(deg)": 0.008872304924320031,
        "Eccentricity": 0.0,
        "Inclination(deg)": 45.0,
        "Latitude(deg)": -5.295115809580328,
        "Longitude(deg)": 159.11471802738757,
        "Mean Anomaly(deg)": -7.3798312430149045,
        "RAAN(deg)": 264.9916248034957,
        "Satellite Name": "Constellation 1 1187",
        "Satellite Number": 1187,
        "Semi-Major Axis(m)": 7083131.272910544,
        "Time(s)": 148
    },
    {
        "Altitude(m)": 704263.3987428424,
        "Argument of Periapsis(deg)": 0.008932252930565437,
        "Eccentricity": 0.0,
        "Inclination(deg)": 45.0,
        "Latitude(deg)": -5.252095456209134,
        "Longitude(deg)": 159.15382030918576,
        "Mean Anomaly(deg)": -7.319130102765068,
        "RAAN(deg)": 264.99156821433013,
        "Satellite Name": "Constellation 1 1187",
        "Satellite Number": 1187,
        "Semi-Major Axis(m)": 7083131.272910544,
        "Time(s)": 149
    },
    {
        "Altitude(m)": 704255.3634249172,
        "Argument of Periapsis(deg)": 0.008992200936810843,
        "Eccentricity": 0.0,
        "Inclination(deg)": 45.0,
        "Latitude(deg)": -5.209071973788326,
        "Longitude(deg)": 159.19291675080592,
        "Mean Anomaly(deg)": -7.258428962515182,
        "RAAN(deg)": 264.9915116251646,
        "Satellite Name": "Constellation 1 1187",
        "Satellite Number": 1187,
        "Semi-Major Axis(m)": 7083131.272910544,
        "Time(s)": 150
    },
    {
        "Altitude(m)": 704247.3473138099,
        "Argument of Periapsis(deg)": 0.009052148943056249,
        "Eccentricity": 0.0,
        "Inclination(deg)": 45.0,
        "Latitude(deg)": -5.1660453878855055,
        "Longitude(deg)": 159.23200740128743,
        "Mean Anomaly(deg)": -7.197727822265244,
        "RAAN(deg)": 264.991455035999,
        "Satellite Name": "Constellation 1 1187",
        "Satellite Number": 1187,
        "Semi-Major Axis(m)": 7083131.272910544,
        "Time(s)": 151
    }
]